{
  "type": "FeatureCollection",
  "features": [
    {
      "type": "Feature",
      "properties": {
        "norad_id": 35706,
        "name": "COSMOS 2251 DEB",
        "group": "cosmos-2251-debris",
        "lat": 73.84605049787422,
        "lon": 150.15584818352355,
        "alt_km": 762.4274536129979,
        "timestamp": "2025-12-16T15:45:51.442397+00:00",
        "meta_object_name": "COSMOS 2251 DEB",
        "meta_object_id": "1993-036AQB",
        "meta_epoch": "2025-12-14T21:08:56.537088",
        "meta_mean_motion": 13.65929011,
        "meta_eccentricity": 0.03404676,
        "meta_inclination": 73.8893,
        "meta_ra_of_asc_node": 59.2702,
        "meta_arg_of_pericenter": 108.6738,
        "meta_mean_anomaly": 255.1655,
        "meta_ephemeris_type": 0,
        "meta_classification_type": "U",
        "meta_norad_cat_id": 35706,
        "meta_element_set_no": 999,
        "meta_rev_at_epoch": 62091,
        "meta_bstar": 0.00069767153,
        "meta_mean_motion_dot": 8.33e-06,
        "meta_mean_motion_ddot": 0,
        "tle_line1": "1 35706U 93036AQB 25348.88120992  .00000833  00000+0  69767-3 0  9994",
        "tle_line2": "2 35706  73.8893  59.2702 0340467 108.6738 255.1655 13.65929011620917"
      },
      "geometry": {
        "type": "Point",
        "coordinates": [
          150.15584818352355,
          73.84605049787422
        ]
      }
    },
    {
      "type": "Feature",
      "properties": {
        "norad_id": 35711,
        "name": "COSMOS 2251 DEB",
        "group": "cosmos-2251-debris",
        "lat": 68.08179561023294,
        "lon": -12.37220116545025,
        "alt_km": 727.1946882084885,
        "timestamp": "2025-12-16T15:45:51.442407+00:00",
        "meta_object_name": "COSMOS 2251 DEB",
        "meta_object_id": "1993-036AQG",
        "meta_epoch": "2025-12-15T21:14:30.906816",
        "meta_mean_motion": 14.63810454,
        "meta_eccentricity": 0.00854956,
        "meta_inclination": 74.0453,
        "meta_ra_of_asc_node": 214.4239,
        "meta_arg_of_pericenter": 314.6741,
        "meta_mean_anomaly": 44.748,
        "meta_ephemeris_type": 0,
        "meta_classification_type": "U",
        "meta_norad_cat_id": 35711,
        "meta_element_set_no": 999,
        "meta_rev_at_epoch": 87817,
        "meta_bstar": 0.00016861371,
        "meta_mean_motion_dot": 8.94e-06,
        "meta_mean_motion_ddot": 0,
        "tle_line1": "1 35711U 93036AQG 25349.88507994  .00000894  00000+0  16861-3 0  9996",
        "tle_line2": "2 35711  74.0453 214.4239 0085495 314.6741  44.7480 14.63810454878178"
      },
      "geometry": {
        "type": "Point",
        "coordinates": [
          -12.37220116545025,
          68.08179561023294
        ]
      }
    },
    {
      "type": "Feature",
      "properties": {
        "norad_id": 35716,
        "name": "COSMOS 2251 DEB",
        "group": "cosmos-2251-debris",
        "lat": 44.698911889370734,
        "lon": -9.796113288268668,
        "alt_km": 705.7362139929692,
        "timestamp": "2025-12-16T15:45:51.442418+00:00",
        "meta_object_name": "COSMOS 2251 DEB",
        "meta_object_id": "1993-036AQM",
        "meta_epoch": "2025-12-15T23:02:15.282240",
        "meta_mean_motion": 14.60090136,
        "meta_eccentricity": 0.00888905,
        "meta_inclination": 73.9921,
        "meta_ra_of_asc_node": 188.0412,
        "meta_arg_of_pericenter": 28.195,
        "meta_mean_anomaly": 41.8395,
        "meta_ephemeris_type": 0,
        "meta_classification_type": "U",
        "meta_norad_cat_id": 35716,
        "meta_element_set_no": 999,
        "meta_rev_at_epoch": 87674,
        "meta_bstar": 8.9477396e-05,
        "meta_mean_motion_dot": 4.22e-06,
        "meta_mean_motion_ddot": 0,
        "tle_line1": "1 35716U 93036AQM 25349.95989910  .00000422  00000+0  89477-4 0  9992",
        "tle_line2": "2 35716  73.9921 188.0412 0088890  28.1950  41.8395 14.60090136876749"
      },
      "geometry": {
        "type": "Point",
        "coordinates": [
          -9.796113288268668,
          44.698911889370734
        ]
      }
    },
    {
      "type": "Feature",
      "properties": {
        "norad_id": 35717,
        "name": "COSMOS 2251 DEB",
        "group": "cosmos-2251-debris",
        "lat": -41.92020802419077,
        "lon": -164.43922438971757,
        "alt_km": 790.4531905246613,
        "timestamp": "2025-12-16T15:45:51.442428+00:00",
        "meta_object_name": "COSMOS 2251 DEB",
        "meta_object_id": "1993-036AQN",
        "meta_epoch": "2025-12-15T21:36:31.335552",
        "meta_mean_motion": 14.38515087,
        "meta_eccentricity": 0.00772191,
        "meta_inclination": 74.1598,
        "meta_ra_of_asc_node": 211.7132,
        "meta_arg_of_pericenter": 70.2705,
        "meta_mean_anomaly": 290.6758,
        "meta_ephemeris_type": 0,
        "meta_classification_type": "U",
        "meta_norad_cat_id": 35717,
        "meta_element_set_no": 999,
        "meta_rev_at_epoch": 74145,
        "meta_bstar": 0.0007891897,
        "meta_mean_motion_dot": 2.473e-05,
        "meta_mean_motion_ddot": 0,
        "tle_line1": "1 35717U 93036AQN 25349.90036268  .00002473  00000+0  78919-3 0  9993",
        "tle_line2": "2 35717  74.1598 211.7132 0077219  70.2705 290.6758 14.38515087741453"
      },
      "geometry": {
        "type": "Point",
        "coordinates": [
          -164.43922438971757,
          -41.92020802419077
        ]
      }
    },
    {
      "type": "Feature",
      "properties": {
        "norad_id": 35718,
        "name": "COSMOS 2251 DEB",
        "group": "cosmos-2251-debris",
        "lat": 51.30669062410431,
        "lon": -78.55775050267441,
        "alt_km": 654.8113381190833,
        "timestamp": "2025-12-16T15:45:51.442437+00:00",
        "meta_object_name": "COSMOS 2251 DEB",
        "meta_object_id": "1993-036AQP",
        "meta_epoch": "2025-12-15T17:56:31.598016",
        "meta_mean_motion": 14.68715304,
        "meta_eccentricity": 0.00105684,
        "meta_inclination": 74.0307,
        "meta_ra_of_asc_node": 124.1491,
        "meta_arg_of_pericenter": 172.9967,
        "meta_mean_anomaly": 187.1353,
        "meta_ephemeris_type": 0,
        "meta_classification_type": "U",
        "meta_norad_cat_id": 35718,
        "meta_element_set_no": 999,
        "meta_rev_at_epoch": 65884,
        "meta_bstar": 0.0010586795,
        "meta_mean_motion_dot": 6.146e-05,
        "meta_mean_motion_ddot": 0,
        "tle_line1": "1 35718U 93036AQP 25349.74758794  .00006146  00000+0  10587-2 0  9998",
        "tle_line2": "2 35718  74.0307 124.1491 0010568 172.9967 187.1353 14.68715304658848"
      },
      "geometry": {
        "type": "Point",
        "coordinates": [
          -78.55775050267441,
          51.30669062410431
        ]
      }
    },
    {
      "type": "Feature",
      "properties": {
        "norad_id": 35721,
        "name": "COSMOS 2251 DEB",
        "group": "cosmos-2251-debris",
        "lat": 23.793576342630274,
        "lon": 177.8226751591432,
        "alt_km": 737.0143710046523,
        "timestamp": "2025-12-16T15:45:51.442447+00:00",
        "meta_object_name": "COSMOS 2251 DEB",
        "meta_object_id": "1993-036AQS",
        "meta_epoch": "2025-12-09T19:36:39.465216",
        "meta_mean_motion": 14.34317214,
        "meta_eccentricity": 0.01465875,
        "meta_inclination": 73.9489,
        "meta_ra_of_asc_node": 183.1196,
        "meta_arg_of_pericenter": 330.1589,
        "meta_mean_anomaly": 29.126,
        "meta_ephemeris_type": 0,
        "meta_classification_type": "U",
        "meta_norad_cat_id": 35721,
        "meta_element_set_no": 999,
        "meta_rev_at_epoch": 57747,
        "meta_bstar": 0.0018396061,
        "meta_mean_motion_dot": 5.808e-05,
        "meta_mean_motion_ddot": 0,
        "tle_line1": "1 35721U 93036AQS 25343.81712344  .00005808  00000+0  18396-2 0  9995",
        "tle_line2": "2 35721  73.9489 183.1196 0146587 330.1589  29.1260 14.34317214577479"
      },
      "geometry": {
        "type": "Point",
        "coordinates": [
          177.8226751591432,
          23.793576342630274
        ]
      }
    },
    {
      "type": "Feature",
      "properties": {
        "norad_id": 35724,
        "name": "COSMOS 2251 DEB",
        "group": "cosmos-2251-debris",
        "lat": -55.810320860103296,
        "lon": -89.70234671785346,
        "alt_km": 740.6253351201804,
        "timestamp": "2025-12-16T15:45:51.442457+00:00",
        "meta_object_name": "COSMOS 2251 DEB",
        "meta_object_id": "1993-036AQV",
        "meta_epoch": "2025-12-15T20:16:44.562144",
        "meta_mean_motion": 14.58205435,
        "meta_eccentricity": 0.00589626,
        "meta_inclination": 74.0325,
        "meta_ra_of_asc_node": 296.7697,
        "meta_arg_of_pericenter": 89.5144,
        "meta_mean_anomaly": 271.2777,
        "meta_ephemeris_type": 0,
        "meta_classification_type": "U",
        "meta_norad_cat_id": 35724,
        "meta_element_set_no": 999,
        "meta_rev_at_epoch": 87574,
        "meta_bstar": 0.00025754837,
        "meta_mean_motion_dot": 1.187e-05,
        "meta_mean_motion_ddot": 0,
        "tle_line1": "1 35724U 93036AQV 25349.84496021  .00001187  00000+0  25755-3 0  9992",
        "tle_line2": "2 35724  74.0325 296.7697 0058962  89.5144 271.2777 14.58205435875742"
      },
      "geometry": {
        "type": "Point",
        "coordinates": [
          -89.70234671785346,
          -55.810320860103296
        ]
      }
    }
  ]
}